{
  "type": "FeatureCollection",
  "features": [
    {
      "type": "Feature",
      "properties": {
        "norad_id": 39773,
        "name": "EUTELSAT 3B",
        "group": "eutelsat",
        "lat": 0.05223461897203022,
        "lon": 44.05553827828492,
        "alt_km": 35803.01268147873,
        "timestamp": "2025-12-21T20:41:07.656547+00:00",
        "meta_object_name": "EUTELSAT 3B",
        "meta_object_id": "2014-030A",
        "meta_epoch": "2025-12-21T13:12:47.664288",
        "meta_mean_motion": 1.00272705,
        "meta_eccentricity": 0.00041373,
        "meta_inclination": 0.061,
        "meta_ra_of_asc_node": 8.9544,
        "meta_arg_of_pericenter": 224.6391,
        "meta_mean_anomaly": 58.0707,
        "meta_ephemeris_type": 0,
        "meta_classification_type": "U",
        "meta_norad_cat_id": 39773,
        "meta_element_set_no": 999,
        "meta_rev_at_epoch": 4228,
        "meta_bstar": 0,
        "meta_mean_motion_dot": 4.3e-07,
        "meta_mean_motion_ddot": 0,
        "tle_line1": "1 39773U 14030A   25355.55055167  .00000043  00000+0  00000+0 0  9996",
        "tle_line2": "2 39773   0.0610   8.9544 0004137 224.6391  58.0707  1.00272705 42287"
      },
      "geometry": {
        "type": "Point",
        "coordinates": [
          44.05553827828492,
          0.05223461897203022
        ]
      }
    },
    {
      "type": "Feature",
      "properties": {
        "norad_id": 40425,
        "name": "EUTELSAT 115 WEST B",
        "group": "eutelsat",
        "lat": 0.005331147165574557,
        "lon": -73.96182181167165,
        "alt_km": 35785.78985009501,
        "timestamp": "2025-12-21T20:41:07.656557+00:00",
        "meta_object_name": "EUTELSAT 115 WEST B",
        "meta_object_id": "2015-010B",
        "meta_epoch": "2025-12-21T04:29:33.223776",
        "meta_mean_motion": 1.00269059,
        "meta_eccentricity": 3.333e-05,
        "meta_inclination": 0.0159,
        "meta_ra_of_asc_node": 149.3637,
        "meta_arg_of_pericenter": 179.3265,
        "meta_mean_anomaly": 73.8064,
        "meta_ephemeris_type": 0,
        "meta_classification_type": "U",
        "meta_norad_cat_id": 40425,
        "meta_element_set_no": 999,
        "meta_rev_at_epoch": 3960,
        "meta_bstar": 0,
        "meta_mean_motion_dot": -2e-08,
        "meta_mean_motion_ddot": 0,
        "tle_line1": "1 40425U 15010B   25355.18719009 -.00000002  00000+0  00000+0 0  9998",
        "tle_line2": "2 40425   0.0159 149.3637 0000333 179.3265  73.8064  1.00269059 39605"
      },
      "geometry": {
        "type": "Point",
        "coordinates": [
          -73.96182181167165,
          0.005331147165574557
        ]
      }
    },
    {
      "type": "Feature",
      "properties": {
        "norad_id": 40875,
        "name": "EUTELSAT 8 WEST B",
        "group": "eutelsat",
        "lat": 0.047788355041780535,
        "lon": 32.99291716486993,
        "alt_km": 35795.76687614013,
        "timestamp": "2025-12-21T20:41:07.656568+00:00",
        "meta_object_name": "EUTELSAT 8 WEST B",
        "meta_object_id": "2015-039B",
        "meta_epoch": "2025-12-21T09:44:11.764608",
        "meta_mean_motion": 1.00271103,
        "meta_eccentricity": 0.00042639,
        "meta_inclination": 0.0633,
        "meta_ra_of_asc_node": 0.4404,
        "meta_arg_of_pericenter": 270.7946,
        "meta_mean_anomaly": 317.0427,
        "meta_ephemeris_type": 0,
        "meta_classification_type": "U",
        "meta_norad_cat_id": 40875,
        "meta_element_set_no": 999,
        "meta_rev_at_epoch": 3787,
        "meta_bstar": 0,
        "meta_mean_motion_dot": -4.3e-07,
        "meta_mean_motion_ddot": 0,
        "tle_line1": "1 40875U 15039B   25355.40569172 -.00000043  00000+0  00000+0 0  9992",
        "tle_line2": "2 40875   0.0633   0.4404 0004263 270.7946 317.0427  1.00271103 37874"
      },
      "geometry": {
        "type": "Point",
        "coordinates": [
          32.99291716486993,
          0.047788355041780535
        ]
      }
    },
    {
      "type": "Feature",
      "properties": {
        "norad_id": 41310,
        "name": "EUTELSAT 9B",
        "group": "eutelsat",
        "lat": -0.007212820813377041,
        "lon": 49.98608842864267,
        "alt_km": 35798.99378882811,
        "timestamp": "2025-12-21T20:41:07.656579+00:00",
        "meta_object_name": "EUTELSAT 9B",
        "meta_object_id": "2016-005A",
        "meta_epoch": "2025-12-21T08:06:13.647744",
        "meta_mean_motion": 1.00272858,
        "meta_eccentricity": 0.00044834,
        "meta_inclination": 0.0641,
        "meta_ra_of_asc_node": 72.0641,
        "meta_arg_of_pericenter": 203.714,
        "meta_mean_anomaly": 304.9349,
        "meta_ephemeris_type": 0,
        "meta_classification_type": "U",
        "meta_norad_cat_id": 41310,
        "meta_element_set_no": 999,
        "meta_rev_at_epoch": 3633,
        "meta_bstar": 0,
        "meta_mean_motion_dot": 8.5e-07,
        "meta_mean_motion_ddot": 0,
        "tle_line1": "1 41310U 16005A   25355.33765796  .00000085  00000+0  00000+0 0  9998",
        "tle_line2": "2 41310   0.0641  72.0641 0004483 203.7140 304.9349  1.00272858 36338"
      },
      "geometry": {
        "type": "Point",
        "coordinates": [
          49.98608842864267,
          -0.007212820813377041
        ]
      }
    },
    {
      "type": "Feature",
      "properties": {
        "norad_id": 41382,
        "name": "EUTELSAT 65 WEST A",
        "group": "eutelsat",
        "lat": -0.008246890421772412,
        "lon": -24.222364866685062,
        "alt_km": 35781.39734992407,
        "timestamp": "2025-12-21T20:41:07.656589+00:00",
        "meta_object_name": "EUTELSAT 65 WEST A",
        "meta_object_id": "2016-014A",
        "meta_epoch": "2025-12-21T13:08:12.054336",
        "meta_mean_motion": 1.00273642,
        "meta_eccentricity": 0.00021455,
        "meta_inclination": 0.0518,
        "meta_ra_of_asc_node": 335.0073,
        "meta_arg_of_pericenter": 298.3002,
        "meta_mean_anomaly": 308.9127,
        "meta_ephemeris_type": 0,
        "meta_classification_type": "U",
        "meta_norad_cat_id": 41382,
        "meta_element_set_no": 999,
        "meta_rev_at_epoch": 3575,
        "meta_bstar": 0,
        "meta_mean_motion_dot": -2.54e-06,
        "meta_mean_motion_ddot": 0,
        "tle_line1": "1 41382U 16014A   25355.54736174 -.00000254  00000+0  00000+0 0  9997",
        "tle_line2": "2 41382   0.0518 335.0073 0002145 298.3002 308.9127  1.00273642 35756"
      },
      "geometry": {
        "type": "Point",
        "coordinates": [
          -24.222364866685062,
          -0.008246890421772412
        ]
      }
    },
    {
      "type": "Feature",
      "properties": {
        "norad_id": 41589,
        "name": "EUTELSAT 117 WEST B",
        "group": "eutelsat",
        "lat": 0.017629457145139173,
        "lon": -76.04121551957132,
        "alt_km": 35785.15248419351,
        "timestamp": "2025-12-21T20:41:07.656600+00:00",
        "meta_object_name": "EUTELSAT 117 WEST B",
        "meta_object_id": "2016-038B",
        "meta_epoch": "2025-12-21T06:20:43.353888",
        "meta_mean_motion": 1.00270341,
        "meta_eccentricity": 3.447e-05,
        "meta_inclination": 0.0057,
        "meta_ra_of_asc_node": 161.4405,
        "meta_arg_of_pericenter": 148.4194,
        "meta_mean_anomaly": 118.4213,
        "meta_ephemeris_type": 0,
        "meta_classification_type": "U",
        "meta_norad_cat_id": 41589,
        "meta_element_set_no": 999,
        "meta_rev_at_epoch": 3487,
        "meta_bstar": 0,
        "meta_mean_motion_dot": 1.1e-07,
        "meta_mean_motion_ddot": 0,
        "tle_line1": "1 41589U 16038B   25355.26439067  .00000011  00000+0  00000+0 0  9992",
        "tle_line2": "2 41589   0.0057 161.4405 0000344 148.4194 118.4213  1.00270341 34874"
      },
      "geometry": {
        "type": "Point",
        "coordinates": [
          -76.04121551957132,
          0.017629457145139173
        ]
      }
    },
    {
      "type": "Feature",
      "properties": {
        "norad_id": 42741,
        "name": "EUTELSAT 172B",
        "group": "eutelsat",
        "lat": 0.007349623376394606,
        "lon": -147.04557002435615,
        "alt_km": 35786.52437351227,
        "timestamp": "2025-12-21T20:41:07.656610+00:00",
        "meta_object_name": "EUTELSAT 172B",
        "meta_object_id": "2017-029B",
        "meta_epoch": "2025-12-21T03:54:38.769408",
        "meta_mean_motion": 1.00271576,
        "meta_eccentricity": 2.14e-05,
        "meta_inclination": 0.0339,
        "meta_ra_of_asc_node": 123.0997,
        "meta_arg_of_pericenter": 332.7082,
        "meta_mean_anomaly": 224.8432,
        "meta_ephemeris_type": 0,
        "meta_classification_type": "U",
        "meta_norad_cat_id": 42741,
        "meta_element_set_no": 999,
        "meta_rev_at_epoch": 3194,
        "meta_bstar": 0,
        "meta_mean_motion_dot": 1.7e-07,
        "meta_mean_motion_ddot": 0,
        "tle_line1": "1 42741U 17029B   25355.16294872  .00000017  00000+0  00000+0 0  9992",
        "tle_line2": "2 42741   0.0339 123.0997 0000214 332.7082 224.8432  1.00271576 31949"
      },
      "geometry": {
        "type": "Point",
        "coordinates": [
          -147.04557002435615,
          0.007349623376394606
        ]
      }
    }
  ]
}